ONEWEB-0291             
1 49081U 21075G   26141.13000390  .00000008  00000+0 -12223-4 0  9999
2 49081  87.9167  11.2411 0001744  95.7644 264.3687 13.17651981230040
ONEWEB-0293             
1 49082U 21075H   26141.15531206  .00000055  00000+0  10950-3 0  9992
2 49082  87.9156  11.2409 0001678  86.0963 274.0360 13.17649273230079
ONEWEB-0294             
1 49083U 21075J   26141.11382109  .00000396  00000+0  10659-2 0  9998
2 49083  87.8963 356.0424 0001451  87.9448 272.1847 13.12443140231024
ONEWEB-0295             
1 49084U 21075K   26141.15448414  .00000039  00000+0  66589-4 0  9994
2 49084  87.9155  11.2452 0001944  94.6876 265.4478 13.17651205230030
ONEWEB-0296             
1 49085U 21075L   26141.09347155 -.00000271  00000+0 -78898-3 0  9993
2 49085  87.8968 356.0526 0001795  96.9488 263.1845 13.12442237231023
ONEWEB-0297             
1 49086U 21075M   26141.12398256  .00000512  00000+0  13874-2 0  9994
2 49086  87.8953 356.0612 0001861  90.1750 269.9592 13.12442277231630
ONEWEB-0298             
1 49087U 21075N   26141.15882878  .00000047  00000+0  87449-4 0  9990
2 49087  87.9156  11.2421 0001996  84.4810 275.6550 13.17646818230063
ONEWEB-0299             
1 49088U 21075P   26141.16038676  .00000072  00000+0  15148-3 0  9995
2 49088  87.9164  11.2200 0001937  90.3242 269.8112 13.17648981230048
ONEWEB-0300             
1 49089U 21075Q   26141.11636783  .00000446  00000+0  12035-2 0  9990
2 49089  87.8964 356.0392 0002180  82.4558 277.6818 13.12443717231654
ONEWEB-0301             
1 49090U 21075R   26141.10027052 -.00000074  00000+0 -24010-3 0  9990
2 49090  87.8963 356.0412 0002075  79.1463 280.9899 13.12443997231015
ONEWEB-0302             
1 49091U 21075S   26141.08669714 -.00000435  00000+0 -12450-2 0  9990
2 49091  87.8964 356.0551 0001532  91.9557 268.1748 13.12442072230994
ONEWEB-0304             
1 49092U 21075T   26141.13506477  .00000008  00000+0 -13737-4 0  9999
2 49092  87.9156  11.2494 0001871  88.9141 271.2205 13.17650653230013
ONEWEB-0305             
1 49093U 21075U   26141.12831197  .00000008  00000+0 -12890-4 0  9998
2 49093  87.9163  11.2330 0002089  94.7797 265.3574 13.17650546230042
ONEWEB-0308             
1 49094U 21075V   26141.07992100 -.00000378  00000+0 -10869-2 0  9998
2 49094  87.8964 356.0487 0001802  85.1465 274.9869 13.12440941231003
ONEWEB-0309             
1 49095U 21075W   26141.13169976  .00000873  00000+0  22147-2 0  9993
2 49095  87.9156  11.2431 0001416  92.3175 267.8119 13.17641880230015
ONEWEB-0310             
1 49096U 21075X   26141.09517364 -.00000231  00000+0 -67749-3 0  9995
2 49096  87.8956 356.0695 0001800  85.1037 275.0297 13.12443274231638
