[{"OBJECT_NAME":"ONEWEB-0291","OBJECT_ID":"2021-075G","EPOCH":"2026-05-21T03:07:12.336960","MEAN_MOTION":13.17651981,"ECCENTRICITY":0.0001744,"INCLINATION":87.9167,"RA_OF_ASC_NODE":11.2411,"ARG_OF_PERICENTER":95.7644,"MEAN_ANOMALY":264.3687,"EPHEMERIS_TYPE":0,"CLASSIFICATION_TYPE":"U","NORAD_CAT_ID":49081,"ELEMENT_SET_NO":999,"REV_AT_EPOCH":23004,"BSTAR":-1.2223000000000001e-05,"MEAN_MOTION_DOT":8e-08,"MEAN_MOTION_DDOT":0.0},{"OBJECT_NAME":"ONEWEB-0293","OBJECT_ID":"2021-075H","EPOCH":"2026-05-21T03:43:38.961984","MEAN_MOTION":13.17649273,"ECCENTRICITY":0.0001678,"INCLINATION":87.9156,"RA_OF_ASC_NODE":11.2409,"ARG_OF_PERICENTER":86.0963,"MEAN_ANOMALY":274.036,"EPHEMERIS_TYPE":0,"CLASSIFICATION_TYPE":"U","NORAD_CAT_ID":49082,"ELEMENT_SET_NO":999,"REV_AT_EPOCH":23007,"BSTAR":0.0001095,"MEAN_MOTION_DOT":5.5e-07,"MEAN_MOTION_DDOT":0.0},{"OBJECT_NAME":"ONEWEB-0294","OBJECT_ID":"2021-075J","EPOCH":"2026-05-21T02:43:54.142176","MEAN_MOTION":13.1244314,"ECCENTRICITY":0.0001451,"INCLINATION":87.8963,"RA_OF_ASC_NODE":356.0424,"ARG_OF_PERICENTER":87.9448,"MEAN_ANOMALY":272.1847,"EPHEMERIS_TYPE":0,"CLASSIFICATION_TYPE":"U","NORAD_CAT_ID":49083,"ELEMENT_SET_NO":999,"REV_AT_EPOCH":23102,"BSTAR":0.0010659,"MEAN_MOTION_DOT":3.96e-06,"MEAN_MOTION_DDOT":0.0},{"OBJECT_NAME":"ONEWEB-0295","OBJECT_ID":"2021-075K","EPOCH":"2026-05-21T03:42:27.429696","MEAN_MOTION":13.17651205,"ECCENTRICITY":0.0001944,"INCLINATION":87.9155,"RA_OF_ASC_NODE":11.2452,"ARG_OF_PERICENTER":94.6876,"MEAN_ANOMALY":265.4478,"EPHEMERIS_TYPE":0,"CLASSIFICATION_TYPE":"U","NORAD_CAT_ID":49084,"ELEMENT_SET_NO":999,"REV_AT_EPOCH":23003,"BSTAR":6.6589e-05,"MEAN_MOTION_DOT":3.9e-07,"MEAN_MOTION_DDOT":0.0},{"OBJECT_NAME":"ONEWEB-0296","OBJECT_ID":"2021-075L","EPOCH":"2026-05-21T02:14:35.941920","MEAN_MOTION":13.12442237,"ECCENTRICITY":0.0001795,"INCLINATION":87.8968,"RA_OF_ASC_NODE":356.0526,"ARG_OF_PERICENTER":96.9488,"MEAN_ANOMALY":263.1845,"EPHEMERIS_TYPE":0,"CLASSIFICATION_TYPE":"U","NORAD_CAT_ID":49085,"ELEMENT_SET_NO":999,"REV_AT_EPOCH":23102,"BSTAR":-0.00078898,"MEAN_MOTION_DOT":-2.71e-06,"MEAN_MOTION_DDOT":0.0},{"OBJECT_NAME":"ONEWEB-0297","OBJECT_ID":"2021-075M","EPOCH":"2026-05-21T02:58:32.093184","MEAN_MOTION":13.12442277,"ECCENTRICITY":0.0001861,"INCLINATION":87.8953,"RA_OF_ASC_NODE":356.0612,"ARG_OF_PERICENTER":90.175,"MEAN_ANOMALY":269.9592,"EPHEMERIS_TYPE":0,"CLASSIFICATION_TYPE":"U","NORAD_CAT_ID":49086,"ELEMENT_SET_NO":999,"REV_AT_EPOCH":23163,"BSTAR":0.0013874,"MEAN_MOTION_DOT":5.12e-06,"MEAN_MOTION_DDOT":0.0},{"OBJECT_NAME":"ONEWEB-0298","OBJECT_ID":"2021-075N","EPOCH":"2026-05-21T03:48:42.806592","MEAN_MOTION":13.17646818,"ECCENTRICITY":0.0001996,"INCLINATION":87.9156,"RA_OF_ASC_NODE":11.2421,"ARG_OF_PERICENTER":84.481,"MEAN_ANOMALY":275.655,"EPHEMERIS_TYPE":0,"CLASSIFICATION_TYPE":"U","NORAD_CAT_ID":49087,"ELEMENT_SET_NO":999,"REV_AT_EPOCH":23006,"BSTAR":8.744900000000001e-05,"MEAN_MOTION_DOT":4.7e-07,"MEAN_MOTION_DDOT":0.0},{"OBJECT_NAME":"ONEWEB-0299","OBJECT_ID":"2021-075P","EPOCH":"2026-05-21T03:50:57.416064","MEAN_MOTION":13.17648981,"ECCENTRICITY":0.0001937,"INCLINATION":87.9164,"RA_OF_ASC_NODE":11.22,"ARG_OF_PERICENTER":90.3242,"MEAN_ANOMALY":269.8112,"EPHEMERIS_TYPE":0,"CLASSIFICATION_TYPE":"U","NORAD_CAT_ID":49088,"ELEMENT_SET_NO":999,"REV_AT_EPOCH":23004,"BSTAR":0.00015148,"MEAN_MOTION_DOT":7.2e-07,"MEAN_MOTION_DDOT":0.0},{"OBJECT_NAME":"ONEWEB-0300","OBJECT_ID":"2021-075Q","EPOCH":"2026-05-21T02:47:34.180512","MEAN_MOTION":13.12443717,"ECCENTRICITY":0.000218,"INCLINATION":87.8964,"RA_OF_ASC_NODE":356.0392,"ARG_OF_PERICENTER":82.4558,"MEAN_ANOMALY":277.6818,"EPHEMERIS_TYPE":0,"CLASSIFICATION_TYPE":"U","NORAD_CAT_ID":49089,"ELEMENT_SET_NO":999,"REV_AT_EPOCH":23165,"BSTAR":0.0012035,"MEAN_MOTION_DOT":4.46e-06,"MEAN_MOTION_DDOT":0.0},{"OBJECT_NAME":"ONEWEB-0301","OBJECT_ID":"2021-075R","EPOCH":"2026-05-21T02:24:23.372928","MEAN_MOTION":13.12443997,"ECCENTRICITY":0.0002075,"INCLINATION":87.8963,"RA_OF_ASC_NODE":356.0412,"ARG_OF_PERICENTER":79.1463,"MEAN_ANOMALY":280.9899,"EPHEMERIS_TYPE":0,"CLASSIFICATION_TYPE":"U","NORAD_CAT_ID":49090,"ELEMENT_SET_NO":999,"REV_AT_EPOCH":23101,"BSTAR":-0.0002401,"MEAN_MOTION_DOT":-7.4e-07,"MEAN_MOTION_DDOT":0.0},{"OBJECT_NAME":"ONEWEB-0302","OBJECT_ID":"2021-075S","EPOCH":"2026-05-21T02:04:50.632896","MEAN_MOTION":13.12442072,"ECCENTRICITY":0.0001532,"INCLINATION":87.8964,"RA_OF_ASC_NODE":356.0551,"ARG_OF_PERICENTER":91.9557,"MEAN_ANOMALY":268.1748,"EPHEMERIS_TYPE":0,"CLASSIFICATION_TYPE":"U","NORAD_CAT_ID":49091,"ELEMENT_SET_NO":999,"REV_AT_EPOCH":23099,"BSTAR":-0.001245,"MEAN_MOTION_DOT":-4.35e-06,"MEAN_MOTION_DDOT":0.0},{"OBJECT_NAME":"ONEWEB-0304","OBJECT_ID":"2021-075T","EPOCH":"2026-05-21T03:14:29.596128","MEAN_MOTION":13.17650653,"ECCENTRICITY":0.0001871,"INCLINATION":87.9156,"RA_OF_ASC_NODE":11.2494,"ARG_OF_PERICENTER":88.9141,"MEAN_ANOMALY":271.2205,"EPHEMERIS_TYPE":0,"CLASSIFICATION_TYPE":"U","NORAD_CAT_ID":49092,"ELEMENT_SET_NO":999,"REV_AT_EPOCH":23001,"BSTAR":-1.3736999999999999e-05,"MEAN_MOTION_DOT":8e-08,"MEAN_MOTION_DDOT":0.0},{"OBJECT_NAME":"ONEWEB-0305","OBJECT_ID":"2021-075U","EPOCH":"2026-05-21T03:04:46.154208","MEAN_MOTION":13.17650546,"ECCENTRICITY":0.0002089,"INCLINATION":87.9163,"RA_OF_ASC_NODE":11.233,"ARG_OF_PERICENTER":94.7797,"MEAN_ANOMALY":265.3574,"EPHEMERIS_TYPE":0,"CLASSIFICATION_TYPE":"U","NORAD_CAT_ID":49093,"ELEMENT_SET_NO":999,"REV_AT_EPOCH":23004,"BSTAR":-1.2889999999999999e-05,"MEAN_MOTION_DOT":8e-08,"MEAN_MOTION_DDOT":0.0},{"OBJECT_NAME":"ONEWEB-0308","OBJECT_ID":"2021-075V","EPOCH":"2026-05-21T01:55:05.174400","MEAN_MOTION":13.12440941,"ECCENTRICITY":0.0001802,"INCLINATION":87.8964,"RA_OF_ASC_NODE":356.0487,"ARG_OF_PERICENTER":85.1465,"MEAN_ANOMALY":274.9869,"EPHEMERIS_TYPE":0,"CLASSIFICATION_TYPE":"U","NORAD_CAT_ID":49094,"ELEMENT_SET_NO":999,"REV_AT_EPOCH":23100,"BSTAR":-0.0010869,"MEAN_MOTION_DOT":-3.78e-06,"MEAN_MOTION_DDOT":0.0},{"OBJECT_NAME":"ONEWEB-0309","OBJECT_ID":"2021-075W","EPOCH":"2026-05-21T03:09:38.859264","MEAN_MOTION":13.1764188,"ECCENTRICITY":0.0001416,"INCLINATION":87.9156,"RA_OF_ASC_NODE":11.2431,"ARG_OF_PERICENTER":92.3175,"MEAN_ANOMALY":267.8119,"EPHEMERIS_TYPE":0,"CLASSIFICATION_TYPE":"U","NORAD_CAT_ID":49095,"ELEMENT_SET_NO":999,"REV_AT_EPOCH":23001,"BSTAR":0.0022147,"MEAN_MOTION_DOT":8.73e-06,"MEAN_MOTION_DDOT":0.0},{"OBJECT_NAME":"ONEWEB-0310","OBJECT_ID":"2021-075X","EPOCH":"2026-05-21T02:17:03.002496","MEAN_MOTION":13.12443274,"ECCENTRICITY":0.00018,"INCLINATION":87.8956,"RA_OF_ASC_NODE":356.0695,"ARG_OF_PERICENTER":85.1037,"MEAN_ANOMALY":275.0297,"EPHEMERIS_TYPE":0,"CLASSIFICATION_TYPE":"U","NORAD_CAT_ID":49096,"ELEMENT_SET_NO":999,"REV_AT_EPOCH":23163,"BSTAR":-0.0006774900000000001,"MEAN_MOTION_DOT":-2.31e-06,"MEAN_MOTION_DDOT":0.0}]